{
  "norad_id": 66396,
  "name": "STARLINK-35669",
  "history": [
    {
      "epoch": "2026-03-28T19:27:45.393984Z",
      "apogee_km": 476.2306529726211,
      "perigee_km": 474.1751992619802,
      "latitude_deg": 4.346059358627407e-05,
      "longitude_deg": 9.854353922205071,
      "height_km": 475.87938546004284,
      "semi_major_axis_km": 6853.339926117301,
      "eccentricity": 0.00014996,
      "inclination_deg": 53.1587,
      "raan_deg": 128.0195,
      "arg_perigee_deg": 77.5705,
      "mean_anomaly_deg": 282.5464,
      "mean_motion_rev_day": 15.30204067
    },
    {
      "epoch": "2026-03-29T01:43:58.031616Z",
      "apogee_km": 476.28700263646806,
      "perigee_km": 474.04049065171876,
      "latitude_deg": 3.9356311076281746e-05,
      "longitude_deg": -85.667112996681,
      "height_km": 476.0505491757907,
      "semi_major_axis_km": 6853.300746644093,
      "eccentricity": 0.0001639,
      "inclination_deg": 53.1584,
      "raan_deg": 126.8082,
      "arg_perigee_deg": 89.46,
      "mean_anomaly_deg": 270.6589,
      "mean_motion_rev_day": 15.30217189
    },
    {
      "epoch": "2026-03-30T05:56:55.452192Z",
      "apogee_km": 476.4693933179324,
      "perigee_km": 473.8585597779056,
      "latitude_deg": -8.274462216256132e-06,
      "longitude_deg": -155.52638802518237,
      "height_km": 476.79803676920557,
      "semi_major_axis_km": 6853.300976547918,
      "eccentricity": 0.00019048,
      "inclination_deg": 53.1581,
      "raan_deg": 121.347,
      "arg_perigee_deg": 124.3521,
      "mean_anomaly_deg": 235.766,
      "mean_motion_rev_day": 15.30217112
    },
    {
      "epoch": "2026-03-30T12:13:08.469984Z",
      "apogee_km": 476.0758348172176,
      "perigee_km": 474.3975806636672,
      "latitude_deg": -1.3072437520900297e-06,
      "longitude_deg": 108.94656530693948,
      "height_km": 475.9955502695102,
      "semi_major_axis_km": 6853.373707740442,
      "eccentricity": 0.00012244,
      "inclination_deg": 53.1577,
      "raan_deg": 120.1317,
      "arg_perigee_deg": 80.4602,
      "mean_anomaly_deg": 279.6537,
      "mean_motion_rev_day": 15.30192753
    },
    {
      "epoch": "2026-03-30T18:29:20.996160Z",
      "apogee_km": 476.1116024325238,
      "perigee_km": 474.24845966446355,
      "latitude_deg": 3.5276200584826017e-06,
      "longitude_deg": 13.424471058553273,
      "height_km": 476.1549175774938,
      "semi_major_axis_km": 6853.317031048494,
      "eccentricity": 0.00013593,
      "inclination_deg": 53.1585,
      "raan_deg": 118.9193,
      "arg_perigee_deg": 94.7466,
      "mean_anomaly_deg": 265.369,
      "mean_motion_rev_day": 15.30211735
    },
    {
      "epoch": "2026-03-31T08:35:49.400160Z",
      "apogee_km": 475.99911652705487,
      "perigee_km": 474.4446376665528,
      "latitude_deg": 2.132870374871902e-05,
      "longitude_deg": 158.49654463599714,
      "height_km": 475.98825207715123,
      "semi_major_axis_km": 6853.358877096804,
      "eccentricity": 0.00011341,
      "inclination_deg": 53.1577,
      "raan_deg": 116.1891,
      "arg_perigee_deg": 80.2475,
      "mean_anomaly_deg": 279.8654,
      "mean_motion_rev_day": 15.3019772
    },
    {
      "epoch": "2026-04-01T08:06:37.854432Z",
      "apogee_km": 476.05690587872414,
      "perigee_km": 474.38468657644444,
      "latitude_deg": -5.043688555569917e-05,
      "longitude_deg": 160.2777362124005,
      "height_km": 476.02685524252956,
      "semi_major_axis_km": 6853.357796227584,
      "eccentricity": 0.000122,
      "inclination_deg": 53.1582,
      "raan_deg": 111.6379,
      "arg_perigee_deg": 83.689,
      "mean_anomaly_deg": 276.4249,
      "mean_motion_rev_day": 15.30198082
    },
    {
      "epoch": "2026-04-02T07:37:25.811904Z",
      "apogee_km": 476.0811729341194,
      "perigee_km": 474.3386409495597,
      "latitude_deg": -2.3582541223669477e-05,
      "longitude_deg": 162.06127665770646,
      "height_km": 476.1386843508736,
      "semi_major_axis_km": 6853.346906941839,
      "eccentricity": 0.00012713,
      "inclination_deg": 53.1581,
      "raan_deg": 107.0869,
      "arg_perigee_deg": 92.0327,
      "mean_anomaly_deg": 268.0819,
      "mean_motion_rev_day": 15.30201729
    },
    {
      "epoch": "2026-04-03T10:16:19.992288Z",
      "apogee_km": 476.0855248136804,
      "perigee_km": 474.37684305806124,
      "latitude_deg": 3.655134328076968e-05,
      "longitude_deg": 116.08346008691727,
      "height_km": 476.13844682367255,
      "semi_major_axis_km": 6853.368183935871,
      "eccentricity": 0.00012466,
      "inclination_deg": 53.1588,
      "raan_deg": 101.9292,
      "arg_perigee_deg": 90.6232,
      "mean_anomaly_deg": 269.4912,
      "mean_motion_rev_day": 15.30194603
    }
  ]
}